{"type":"FeatureCollection","features":[{"type":"Feature","properties":{"tooltip":"Iowa City Hump"},"geometry":{"type":"Point","coordinates":[-91.638076,41.563729]}},{"type":"Feature","properties":{"tooltip":"Boone Range"},"geometry":{"type":"LineString","coordinates":[[-93.999786,42.522395],[-93.8797,42.389497],[-94.089849,42.359926],[-94.089849,42.241502],[-93.829665,42.09316],[-93.739379,42.058658],[-93.74571,41.98576],[-93.891327,41.882129],[-94.049823,41.862541]]}},{"type":"Feature","properties":{"tooltip":"Griswold Sinkhole"},"geometry":{"type":"Polygon","coordinates":[[[-94.869584,41.343938],[-95.234434,41.476117],[-95.271813,41.201324],[-95.239591,41.037468],[-94.941538,40.970597],[-94.667665,41.134624],[-95.061286,41.113724],[-94.869584,41.343938]]]}}]}