{"type":"FeatureCollection", "features": [
{"type":"Feature","geometry":{"type":"Polygon","coordinates":[[[-90.33271368547163,41.6823510646952],[-90.3169020136507,41.69165975266593],[-90.31322597108193,41.69894973541169],[-90.31322616305863,41.70893738977042],[-90.31725384919872,41.71672266219508],[-90.31647613446518,41.73136621729918],[-90.31281409185216,41.73975518556583],[-90.30663381621713,41.746797131051714],[-90.29644112558096,41.75589668472052],[-90.28688884467961,41.76123697145639],[-90.27675723749648,41.768183755765804],[-90.26444296346243,41.77148433074507],[-90.25710321865802,41.77654157847839],[-90.24732199354668,41.7803870679121],[-90.23461044384553,41.78743015880913],[-90.21425392655271,41.79670002717177],[-90.1886033603599,41.80284676665844],[-90.18245614543136,41.80668552248447],[-90.18071551996161,41.81065931209821],[-90.18176850238149,41.82608490471295],[-90.18416394470779,41.83246569859508],[-90.18216533310539,41.84365570358467],[-90.1776033606236,41.84926216651763],[-90.17294954924785,41.858864680280846],[-90.1731011649044,41.8661359592906],[-90.17008015640383,41.87621982212392],[-90.15987152055224,41.89215062039971],[-90.15573721603907,41.90136897228888],[-90.15289845445754,41.91136678033783],[-90.15183051512038,41.93117048748694],[-90.1551722938365,41.93633253042466],[-90.16298579892432,41.943127087675094],[-90.16425163270874,41.956081307764755],[-90.15909412265825,41.966715268679586],[-90.15344818844903,41.974761287898836],[-90.14711540646528,41.9795569686558],[-90.1462015779861,41.987837279283696],[-90.14056980574587,41.99573889314294],[-90.14009762699433,42.00311152925292],[-90.14321147932559,42.013653249586675],[-90.1482152998094,42.02000040919611],[-90.15112967999426,42.03045589310693],[-90.16437491425224,42.042553993239444],[-90.16655699999356,42.05576457110745],[-90.165366139388,42.06278623087832],[-90.16864671045286,42.076095926244015],[-90.1639029163749,42.08598347533724],[-90.16120067813762,42.10380089065994],[-90.16136933005126,42.112143843778114],[-90.16284863891384,42.11708826376575],[-90.17130273799921,42.12574396281259],[-90.1762922023255,42.12662337569899],[-90.189383559353,42.12566628691408],[-90.19702932974954,42.12812274376076],[-90.20212343289884,42.13202932333267],[-90.20520784579156,42.13845317780836],[-90.20618473586217,42.1451768136119],[-90.20893122367686,42.15218666505949],[-90.21421068738854,42.15575502220174],[-90.22962276263752,42.162720211832855],[-90.23621450577153,42.166481350664284],[-90.25005341322975,42.17148777251183],[-90.25370129229547,42.17162023738916],[-90.27134035821797,42.17539132081639],[-90.2810597624167,42.178296763685644],[-90.29050564596297,42.182824855070415],[-90.2979666517615,42.1875575527188],[-90.31870354686906,42.19417693881683],[-90.32676020145023,42.20078577190446],[-90.33840252326186,42.203443031446774],[-90.35546176957268,42.2053326849374],[-90.37523728969154,42.2149004171918],[-90.38723243760764,42.22303904874986],[-90.39266213986782,42.226473501300674],[-90.39749049813132,42.23641688328958],[-90.4052955629674,42.24379796581772],[-90.41660312679281,42.25204993723151],[-90.42044788612783,42.25615277369508],[-90.42336239636579,42.26450295953885],[-90.43044295903209,42.277728203182456],[-90.4310093939394,42.28211198242644],[-90.42461390036893,42.29344618457514],[-90.419410809713,42.30816936045692],[-90.42160681320202,42.315665896954236],[-90.41651159383072,42.321611485429436],[-90.41785452998559,42.32699069301497],[-90.4334814651744,42.34109564635458],[-90.44493856092527,42.35601735867148],[-90.45293488549264,42.35962625500333],[-90.46507913690999,42.36999908090123],[-90.46854402953205,42.376154001736275],[-90.47606573591081,42.383424807106394],[-90.48558815014972,42.38463370874388],[-90.50203610326501,42.39677188522397],[-90.51558688006278,42.4023523195951],[-90.54230422513473,42.41155510727426],[-90.54969551511422,42.413191100987554],[-90.55466334984196,42.41601578972374],[-90.55791390172467,42.4203084210302],[-90.55837135579621,42.42865673734401],[-90.56255243427694,42.43634590548064],[-90.5667189169442,42.43986533169449],[-90.5839623144705,42.444660626885764],[-90.59300926912032,42.44828190596442],[-90.61194686456882,42.45266161626498],[-90.6178510563523,42.45489740018326],[-90.62999714353785,42.46258736914437],[-90.63890842810812,42.466760546442025],[-90.64998816368627,42.47411908539105],[-90.6532355390682,42.47710443276616],[-90.65647064784372,42.48394238013605],[-90.65659242022792,42.49063554791118],[-90.64870340991125,42.497551781781226],[-90.64429318358003,42.50467412880626],[-90.63732022188753,42.51196859288228],[-90.63648135246335,42.5185608959618],[-90.64113543197124,42.5290034699772],[-90.6431943535673,42.53815373706915],[-90.64387786656046,42.54006713100671],[-90.64592689674008,42.54453643127522],[-90.65502102412437,42.550360038791716],[-90.65891099440515,42.556274778174355],[-90.66161288284184,42.56827043296338],[-90.66564062392449,42.572864034985535],[-90.67850381694804,42.580356403733596],[-90.68669627545137,42.59090477886397],[-90.68779768898568,42.59833801075338],[-90.6930458137176,42.612671494778446],[-90.70007932789161,42.62202491154916],[-90.70049166525935,42.62744508650967],[-90.7034201655075,42.63182616825641],[-90.710835181502,42.637093828878555],[-90.71869511904754,42.64028987412422],[-90.73508247504543,42.644244139601206],[-90.74426921832124,42.645343983677016],[-90.76877498323462,42.65125393276825],[-90.78780309097348,42.65359509078334],[-90.79772099545944,42.6558033079737],[-90.81600047680374,42.658341510084135],[-90.82952015990755,42.661227937140815],[-90.85060782960912,42.66432708887536],[-90.86263076457958,42.66766778504796],[-90.87576790227675,42.670052466906334],[-90.8865578139145,42.672118999901045],[-90.89995448607579,42.67601242532533],[-90.91362718152142,42.68342124365814],[-90.9218361349516,42.68545253097247],[-90.93794971941146,42.68354659071839],[-90.94599087341108,42.68453755808596],[-90.95224830983898,42.68674777188603],[-90.96665105529287,42.693767130832455],[-90.9740974691399,42.694988705371145],[-90.98110202082472,42.69939877444106],[-90.98583162181535,42.70592061482436],[-90.99190528151017,42.71154733120567],[-91.0083533247539,42.71996598068192],[-91.01444272708984,42.7193242450508],[-91.02689320537209,42.724528065583144],[-91.03057048341955,42.72960709989245],[-91.03067801947215,42.7331298925763],[-91.03424818818134,42.73700930499419],[-91.04389184387074,42.73868718243124],[-91.04759966802776,42.73693141675155],[-91.05310815411413,42.73803370382496],[-91.05467958673502,42.7453003968565],[-91.06030942739869,42.750591713310456],[-91.06479632057352,42.751144849732086],[-91.06536128844405,42.75708866012039],[-91.06053966877248,42.761986876722425],[-91.06948045284403,42.769521941595556],[-91.07123577350535,42.783058910530855],[-91.07758334047206,42.80335463610211],[-91.07962739737948,42.8229295390277],[-91.07721680014961,42.835576948021036],[-91.08036033088133,42.83844820734876],[-91.08091002890426,42.84714710123993],[-91.07836094531125,42.850643253035024],[-91.082526328323,42.85715153927072],[-91.07906371632622,42.866953779403275],[-91.08086407488007,42.870901064848645],[-91.08921933016084,42.87765034697765],[-91.09900600313502,42.88230667095516],[-91.10602643385154,42.887294634062656],[-91.11866007253467,42.893212003438755],[-91.12508477232696,42.89430793827914],[-91.13390847648115,42.89765564494535],[-91.14280874801196,42.90379446505064],[-91.1466150895722,42.911398511607906],[-91.14359357397126,42.922803657913065],[-91.14459992102249,42.92841195138341],[-91.14829359123384,42.93577465125406],[-91.14987960209456,42.94348137551479],[-91.1453480802325,42.95708625389738],[-91.14606579365389,42.9622215834611],[-91.14946846540815,42.96875106890766],[-91.15627318292775,42.97687512947889],[-91.15674517230471,42.980285630757734],[-91.15706719031354,42.99072817568032],[-91.16321664370635,43.008062016566015],[-91.17066280465721,43.02487589562807],[-91.17421851133881,43.03919598696287],[-91.1786427636356,43.06806313131693],[-91.17670550607795,43.07380418374928],[-91.17527109802135,43.10383839884899],[-91.17850662237882,43.1245231413721],[-91.17736221293454,43.13070508682608],[-91.17385236712063,43.135295403577835],[-91.16259126988588,43.13907701549297],[-91.15250189226393,43.14481239927161],[-91.14707255780966,43.15026229601943],[-91.14243443238395,43.15889433486168],[-91.13857331945859,43.16946576094628],[-91.1323937019833,43.17605528124775],[-91.12540511882324,43.1861158933011],[-91.12387951647148,43.19353748537615],[-91.12116297937956,43.197841993221736],[-91.112998118644,43.202740997477584],[-91.10642292534153,43.208187995411215],[-91.08345825555647,43.224301361016884],[-91.06246047735068,43.24349584115209],[-91.05937847311509,43.248116796536216],[-91.05805645404016,43.25415422471523],[-91.05957692893871,43.25886225037169],[-91.0697409109142,43.26000672688583],[-91.07245659417856,43.2625737268093],[-91.07130268111769,43.26831699181281],[-91.07245612734062,43.27256843560165],[-91.07715559099442,43.27770793783184],[-91.0868911313188,43.29376369329151],[-91.10204159823785,43.30889094717288],[-91.10646872911973,43.31374575327482],[-91.11547182029763,43.31773928229474],[-91.12287327853342,43.32347064030008],[-91.13149042574004,43.32801482910638],[-91.15105681467988,43.3337534197776],[-91.16953450080644,43.34115501962458],[-91.1805057426116,43.34659757537833],[-91.19732208846627,43.3488898802405],[-91.20592770667875,43.35172648600711],[-91.2105555206622,43.35927164655447],[-91.21457980861155,43.36857364408652],[-91.20673667485451,43.37403346815647],[-91.1989238898514,43.38944278012065],[-91.1981299220956,43.397696042272415],[-91.20008311187162,43.41430334292006],[-91.20243373591143,43.41889639035132],[-91.21064288316212,43.42858749482562],[-91.22599397066891,43.443125181320845],[-91.23188254836236,43.45255359976315],[-91.23307468466439,43.45798345458965],[-91.22951852236426,43.462835625322086],[-91.22169066284592,43.46771134778479],[-91.21502269571292,43.48430083082702],[-91.21815143822282,43.495991785333906],[-91.21760800731417,43.50080043477041],[-91.29174257128629,43.50074527882121],[-91.35070786196813,43.50057378159304],[-91.37182138637883,43.50072326920012],[-91.53114602470296,43.50057534235776],[-91.65082801060366,43.500527285999574],[-91.73139711570315,43.50062036192786],[-91.79110753022583,43.50080761798202],[-91.83070562050982,43.500660938816935],[-91.91059287929205,43.50077421293128],[-91.97083239098194,43.5005035429639],[-92.03057292867028,43.500872404061475],[-92.10003279577128,43.500701859283495],[-92.15966554337155,43.50092155006604],[-92.19810406486295,43.50056727832763],[-92.23805164487065,43.50073239602688],[-92.25046053085545,43.500490254771016],[-92.29094343700261,43.5006404388486],[-92.35580826133427,43.50045704863254],[-92.41567083511309,43.50083269698311],[-92.49997600753107,43.50016998550736],[-92.51545003626403,43.50050685899536],[-92.53542964882855,43.50017574639952],[-92.57311517835518,43.50052105019751],[-92.613217716622,43.500168826174644],[-92.65328848647296,43.50028867104556],[-92.74988080049137,43.49994726518471],[-92.77212926737656,43.500155573187826],[-92.85020681852771,43.499761297544055],[-92.89031156173073,43.5000584224079],[-92.92512368906105,43.49973492069966],[-92.94539817670392,43.4999712533793],[-92.98565250115008,43.49972176870496],[-93.08418216441261,43.49958135976086],[-93.1128970409269,43.49920923444671],[-93.11293573532934,43.49965040589624],[-93.2408203540598,43.499597977921155],[-93.2803115142082,43.49939945803519],[-93.35991893488837,43.49939205480981],[-93.4387638116342,43.499566274992745],[-93.55703883187313,43.499563943150825],[-93.65653024731658,43.4996211421809],[-93.74991756520163,43.49950590967218],[-93.75368773089026,43.49970626095665],[-93.81324518055474,43.499568894931926],[-93.89230309074821,43.49963736090983],[-94.00037105612257,43.49982450267156],[-94.10813786227261,43.50012751541981],[-94.25053346151377,43.500162530028085],[-94.34436152801706,43.50014259432059],[-94.54241739561861,43.500515150722684],[-94.5608628968375,43.50038191059155],[-94.62539498332184,43.50071638679944],[-94.7184763113269,43.50085901818427],[-94.7979155520036,43.50108764649991],[-94.83772786352517,43.50079725740151],[-94.95440422623594,43.500907485458676],[-95.0918590487856,43.50088061118339],[-95.15113630185196,43.501050775048725],[-95.23104871728698,43.500609439463005],[-95.2891681493781,43.500505149928685],[-95.34872122041477,43.50017062169308],[-95.38780740566081,43.50024333464951],[-95.46736663775364,43.4999495233919],[-95.50466256768497,43.500038837250294],[-95.58462225944417,43.49973531352709],[-95.64324809735727,43.49990715367145],[-95.70353245993665,43.499865591267415],[-95.84104380288368,43.49990650790767],[-95.88089457726284,43.5001514597423],[-95.94043897387658,43.50006656232569],[-96.03802072019081,43.50028745961165],[-96.09605077085261,43.50017088338533],[-96.1957550310517,43.50019959272322],[-96.25379495636449,43.500281563040645],[-96.34981823022972,43.50010970382602],[-96.37015497450895,43.50029514766666],[-96.52404983102349,43.50015462576794],[-96.59915441835503,43.50033354703143],[-96.59799325864262,43.494473043160895],[-96.58998197403137,43.49201517473005],[-96.58595449778781,43.483444609528924],[-96.58097976761582,43.4811158030342],[-96.58645720783848,43.47748671381457],[-96.58360348624787,43.47443416586024],[-96.58513047108715,43.470550880439596],[-96.58244318430438,43.46670979590094],[-96.59359906797698,43.46270405258551],[-96.6013357314159,43.45547388805271],[-96.60315065989906,43.45047388383868],[-96.59652905432897,43.4412651930016],[-96.5926363224278,43.4329156465342],[-96.58721956430048,43.43146529922863],[-96.57595762343078,43.43190844491433],[-96.57040328117333,43.428489889342664],[-96.57084642072245,43.42340720147343],[-96.57359346170587,43.41925182086854],[-96.56126296627308,43.41273138405231],[-96.55750895924562,43.40635698533992],[-96.54852111324267,43.4038184971169],[-96.54490491319228,43.400068353383],[-96.5355969641581,43.394783757943145],[-96.52622769144249,43.396540880615454],[-96.52131420514775,43.38533024386207],[-96.52451866610168,43.38236836970622],[-96.52123758840325,43.375852095264364],[-96.52608963287302,43.36866183269622],[-96.53078892824185,43.36619383553505],[-96.52756939372385,43.362709957773035],[-96.52743333805954,43.35589862165138],[-96.52520412577034,43.353455489802435],[-96.5277225815032,43.34852494384132],[-96.52428811530375,43.347379470351235],[-96.52798146682852,43.34256572579095],[-96.53487863797639,43.337004540223454],[-96.53150581936588,43.331724824620004],[-96.53339920184797,43.32896527288928],[-96.52911119473387,43.32474016426889],[-96.53083480144936,43.320689409505796],[-96.52900336142501,43.3154970137589],[-96.52430343874978,43.31103233947817],[-96.52917144751069,43.308334120857836],[-96.53225368277697,43.30418734649004],[-96.53008723982896,43.300202766401185],[-96.5385241799533,43.29867231612897],[-96.54310231569616,43.294938086339876],[-96.55480609469531,43.2940073518691],[-96.5562407023532,43.29653768226438],[-96.56854091020804,43.29557796826194],[-96.57507027491559,43.29950641004462],[-96.58859065582091,43.2963635413661],[-96.58537033893796,43.292917307036404],[-96.57937310863764,43.29227702792021],[-96.58143373466943,43.28757571085226],[-96.57772562557513,43.278742502324576],[-96.58109744746601,43.274990497435475],[-96.58618057856062,43.27474104000972],[-96.58494329872099,43.26843246532167],[-96.57702353382568,43.268392557816746],[-96.57026430757305,43.262985819552256],[-96.55956676926296,43.259033930412],[-96.55268577201387,43.2581946704645],[-96.5523646378202,43.251875235325734],[-96.54944932170092,43.248472479344976],[-96.56507487798102,43.244447677517606],[-96.57162172971692,43.23877811619109],[-96.56887539415219,43.23201225283428],[-96.55832925862975,43.22297746016694],[-96.55539992260923,43.22682310451143],[-96.54786263051167,43.227084362963744],[-96.53959154343356,43.2257562190689],[-96.53625024195615,43.22763335814758],[-96.52205856692146,43.220994816703026],[-96.52073089100612,43.21791148721854],[-96.50878314916619,43.2208449496296],[-96.500954822522,43.22055381422489],[-96.49735321968052,43.223536211363346],[-96.48606193220822,43.22418723318704],[-96.4754862631723,43.220520666484155],[-96.47644819904959,43.21390978389542],[-96.4707706214135,43.20701447145303],[-96.47507384835819,43.20238193125459],[-96.47214460872561,43.196447516752286],[-96.47415752698191,43.1901558510759],[-96.46521535547816,43.18275615760565],[-96.4667882615645,43.1744701347482],[-96.46582570328353,43.17105092210895],[-96.46751973998747,43.16403972656936],[-96.46744339859175,43.156632027564754],[-96.46382629626906,43.1557602774708],[-96.46582597790773,43.149829279251165],[-96.45950853724236,43.14768866906912],[-96.45071813778183,43.142552118076246],[-96.4432563494556,43.13380941160456],[-96.44165384173263,43.12515108064699],[-96.4363746910851,43.12015975033965],[-96.44011351710473,43.11321349212109],[-96.44636954162381,43.10961267499984],[-96.45012216628082,43.10112603134821],[-96.46214711687783,43.093271430777634],[-96.46298550835111,43.08986063602489],[-96.45466959471979,43.08722200608772],[-96.45533957617376,43.07487562832358],[-96.45915576943003,43.070015257708306],[-96.4610017258724,43.0642420075811],[-96.46860071189192,43.06189585132967],[-96.47719169029995,43.062571300573524],[-96.48916979818465,43.053733861592136],[-96.49092431505152,43.05075408377684],[-96.5035445786011,43.04869338682924],[-96.51132710452606,43.049598165163005],[-96.51465311570658,43.044426880010505],[-96.50909802781675,43.03702531088501],[-96.51062472296194,43.03209841411968],[-96.5137530779538,43.03063376745546],[-96.5106244143369,43.02437318717203],[-96.50342128428419,43.02007416807945],[-96.49948413518892,43.019312339345475],[-96.49194672907171,43.01028686724373],[-96.49276987344145,43.00589488026573],[-96.49875112088937,42.99785169245917],[-96.50748036558653,42.99675597372726],[-96.51150838845328,42.994039281083936],[-96.51256129778828,42.98578646007728],[-96.52061782828169,42.98072172157347],[-96.51585755277596,42.97298978508251],[-96.50569463235006,42.97158197248818],[-96.50271887649201,42.967720441686524],[-96.50274884042149,42.95728405015185],[-96.5092954789185,42.952293347691395],[-96.50929616386443,42.945369352090744],[-96.5142245391925,42.94493894028683],[-96.52006924088283,42.938681633889715],[-96.51617660912729,42.934803625018276],[-96.52603493274152,42.93540058206264],[-96.53424465939342,42.927791087919466],[-96.5337872600683,42.92384351538648],[-96.54082145813994,42.924598435413984],[-96.54138588211609,42.91965585012909],[-96.53813613994926,42.9181267000024],[-96.53975366780813,42.911827974989805],[-96.5378452930797,42.91048239942139],[-96.53979917465085,42.89994144111279],[-96.53577076163619,42.90075030294219],[-96.52872093407854,42.8978526055164],[-96.52742298018195,42.89070751269166],[-96.53429074863423,42.890396529213156],[-96.54248368261841,42.88453372400488],[-96.53784610946094,42.878509538189164],[-96.54666557827532,42.874508880086346],[-96.54939689201356,42.869327972454954],[-96.54614697402569,42.86571912735496],[-96.54712222799154,42.85779246031699],[-96.54132398439157,42.85756687869141],[-96.54523099344017,42.84990060181587],[-96.54864950134487,42.85089311754694],[-96.55495146333618,42.84507005188541],[-96.54874032518168,42.84048175236997],[-96.55159341124327,42.83608035009257],[-96.56262605108674,42.83688090187448],[-96.56401511637205,42.8282568989437],[-96.56964595616536,42.8342850972325],[-96.57590282017246,42.83539531411755],[-96.58244792389539,42.83422717648681],[-96.57817494327116,42.82895851732189],[-96.58072397037674,42.8248900461214],[-96.5855008238057,42.8240471732973],[-96.5840197571027,42.81942053224441],[-96.59569382799883,42.815299681049645],[-96.59589128354972,42.81045837057091],[-96.59067322058158,42.80837123142301],[-96.5923515816718,42.80071923865531],[-96.59714298046309,42.79632788228815],[-96.59808948618014,42.791607076312],[-96.60526075242355,42.79074211101745],[-96.6027282183494,42.786878138216636],[-96.61542326813245,42.782759173613506],[-96.62003182006586,42.78343285165714],[-96.62248815503665,42.776197006184155],[-96.63022521680847,42.77030639056749],[-96.63535159382432,42.76372387182506],[-96.62554139110684,42.75483302133715],[-96.63036324872154,42.749989124918336],[-96.62979828308019,42.74724276859714],[-96.63573357539858,42.7415078257611],[-96.63290995930542,42.737986815865085],[-96.63944142365577,42.73633865180942],[-96.6327734682135,42.732516616157355],[-96.63056048182176,42.72950740673397],[-96.63455813585435,42.724788405854625],[-96.62535367207474,42.72608878351714],[-96.62451803246262,42.72168519220169],[-96.62805812819073,42.71806140544819],[-96.62462465337903,42.71368609967608],[-96.63031681809953,42.70531189248777],[-96.62193855784142,42.70542424008489],[-96.61971080156252,42.700497378947716],[-96.61438478438956,42.69863072851278],[-96.6094407998539,42.702586509588635],[-96.6057035027987,42.69786003174598],[-96.59943138587336,42.69731008170472],[-96.59082573707681,42.69117836024254],[-96.58679714102846,42.690170130878755],[-96.5862319772394,42.68315553301895],[-96.57581028638293,42.683274457859135],[-96.5723921802359,42.6762138002372],[-96.56822689009584,42.676208647054246],[-96.56451774619555,42.671182773602666],[-96.56035231772013,42.6690973521285],[-96.56035240551026,42.65863439204457],[-96.55470703414346,42.65827857554539],[-96.55023631616857,42.66070439527281],[-96.5429569006225,42.661182033472286],[-96.53790620397615,42.655638522535476],[-96.53790564385203,42.64599494603158],[-96.52705767098591,42.64146734767083],[-96.52525667126027,42.6382812688351],[-96.52329198199779,42.63656893693736],[-96.52328315079056,42.636554665514915],[-96.52326203884776,42.636542839878715],[-96.51605581959011,42.63026223391591],[-96.5159169353852,42.62325213133328],[-96.51936662097914,42.61854492904756],[-96.52783520547189,42.61835632776138],[-96.53137549942423,42.61660839538949],[-96.52997187538091,42.610501723930696],[-96.5260958166805,42.608973372281326],[-96.51997731516458,42.615905894561706],[-96.51506231078902,42.61632703019077],[-96.50943331797757,42.61291598536929],[-96.50450076846141,42.60472004417007],[-96.5006739261243,42.594941326451625],[-96.50014042221525,42.58863657321819],[-96.49258646338367,42.58820096404354],[-96.49124382027894,42.58619792552302],[-96.4960350192773,42.58073012031691],[-96.49131945342731,42.57710119329093],[-96.48674182862456,42.576178188157165],[-96.48601084999396,42.572859819620795],[-96.48971714884811,42.57070290408775],[-96.49742340426415,42.57170133790194],[-96.49980422690973,42.56863912159786],[-96.49867601095575,42.55870574135613],[-96.49707244009973,42.557169960985085],[-96.47730973870098,42.55617391958989],[-96.47692793307121,42.555526265618695],[-96.47729716252896,42.53591856384813],[-96.48094347163575,42.523912895236094],[-96.49312198207933,42.518904701903175],[-96.4909233131508,42.513127872372536],[-96.48709821316,42.51090327373151],[-96.47831992063672,42.51081910871837],[-96.47317647255379,42.5040958286275],[-96.47705249713412,42.49679259272425],[-96.47454992277672,42.49203310937839],[-96.46408294890757,42.49104457641592],[-96.45564521434088,42.49307793114704],[-96.44250390948729,42.49176739020054],[-96.44291925091967,42.489854932060794],[-96.42971977912241,42.48967474024685],[-96.40413056850247,42.48715160755894],[-96.39735414205254,42.48493059655039],[-96.39047272787275,42.480596190873136],[-96.3843390662853,42.471187639358504],[-96.38089030602481,42.46042984381603],[-96.38028105955742,42.44723792244698],[-96.38319470021354,42.43920973515493],[-96.38935890331003,42.430905235869716],[-96.3970809220798,42.42397696349874],[-96.40574763587875,42.41820871443293],[-96.41096661232301,42.41297476107986],[-96.41563593693182,42.40473137843277],[-96.41623125085208,42.40076955808512],[-96.41456884113433,42.391652308920186],[-96.40849515477457,42.379739811008555],[-96.41093584706584,42.37006809876645],[-96.41720838211903,42.361479737051376],[-96.41798697773274,42.354792985361264],[-96.41436985680382,42.344788470688854],[-96.40896784031949,42.33793458813742],[-96.39839297709163,42.3316121722515],[-96.38380625021024,42.325317248101136],[-96.3741151382263,42.31664318638513],[-96.36859295271286,42.30465807921974],[-96.36915700239346,42.294790158537225],[-96.36781416617876,42.288373120725176],[-96.36026113094594,42.27861738326446],[-96.35328743787875,42.274319165469386],[-96.34082027233929,42.268812011706494],[-96.33280919157285,42.2610488269297],[-96.32849114441758,42.25211529494219],[-96.32769751914314,42.24654622919178],[-96.32992582445983,42.240367110416],[-96.32327121852884,42.23390549935342],[-96.32594182779226,42.22869517632706],[-96.33409069815654,42.219921695293166],[-96.35757405800976,42.2147878600973],[-96.35948209519348,42.20794217746135],[-96.350784626885,42.19959689265232],[-96.34721325222635,42.190912280247304],[-96.34738163855535,42.18550432813248],[-96.3503413688102,42.17827686817402],[-96.34991424565288,42.1714544981334],[-96.34754886280967,42.16631863999714],[-96.3425595261941,42.160439777675705],[-96.33650144700488,42.156473853146494],[-96.32513275789785,42.1511938689032],[-96.31789979834305,42.14506374230774],[-96.31527460606125,42.138682970252106],[-96.30978162762064,42.13206974321548],[-96.29687315203506,42.127128472972544],[-96.28526104636424,42.1254625161668],[-96.2756635249847,42.12168466878363],[-96.27102348561831,42.11642295775583],[-96.26622995420298,42.10512290140879],[-96.2679701277528,42.09522159553009],[-96.27686590017395,42.08153199220562],[-96.27859135004334,42.07647576929454],[-96.27943003879615,42.06734747377662],[-96.27866620674992,42.06120069133301],[-96.27549189786036,42.05152962760132],[-96.2714947462707,42.04517786207656],[-96.2673281464926,42.04146032236467],[-96.25992432514337,42.03868114118018],[-96.2440883519155,42.04159753594426],[-96.23732829864495,42.041131201162536],[-96.22715021609531,42.03697846346748],[-96.22139799880873,42.02840499787726],[-96.22212881566531,42.02458419657596],[-96.22731692726789,42.018755908679296],[-96.23902279905062,42.011725871714546],[-96.2413564000277,42.00858009700614],[-96.24230350217432,42.0018893413759],[-96.23664203400442,41.99619582247797],[-96.2256083293161,41.99448050049698],[-96.22173259560668,41.99729102065467],[-96.21831511569134,42.002988294808326],[-96.21317275962754,42.00739204691484],[-96.20104181860745,42.0095864102922],[-96.19257212746287,42.008417663306375],[-96.18593482279888,42.0050090777369],[-96.18358352016861,42.00088684575886],[-96.18436197159377,41.996191469583955],[-96.19219017042676,41.9852935642045],[-96.19080196726317,41.98063142079737],[-96.18715493767729,41.97751792343575],[-96.17834936547449,41.976105289141096],[-96.16727095199626,41.979446540390406],[-96.15941277657616,41.98034767276828],[-96.14429072390612,41.97935838168505],[-96.1307401449414,41.97348831730986],[-96.12893951932065,41.96510840554122],[-96.13504392521051,41.95229815505162],[-96.14191077936303,41.946535940169106],[-96.14432217552583,41.94258854162505],[-96.14366586754821,41.938536085117526],[-96.13649347645786,41.9274576189075],[-96.13580627841296,41.92251441142764],[-96.13762311779372,41.91877250940992],[-96.14476428821747,41.91451553836556],[-96.155094866752,41.91222369998066],[-96.16150288557287,41.90666205675284],[-96.1611518144551,41.90070113057882],[-96.1490047733665,41.88861664022797],[-96.14671579762509,41.88450990703725],[-96.1458770857342,41.87447379211338],[-96.13947111431693,41.86631915743298],[-96.13521061049157,41.862959516013724],[-96.11950843075805,41.85674136213339],[-96.10969705105565,41.84854243732186],[-96.10762132054602,41.84363660535287],[-96.10794186036966,41.83869288106944],[-96.1107496336134,41.83098009759397],[-96.10810982967416,41.820974380127645],[-96.10150313753903,41.8154975860285],[-96.09033261812934,41.811863432442834],[-96.07830876539106,41.80945781914595],[-96.07038954017482,41.804392621711614],[-96.06704689914491,41.80045646061789],[-96.06455892551999,41.79353452351728],[-96.06631430346368,41.789011837261825],[-96.07380624685995,41.782417460854205],[-96.07894906161188,41.77242745332163],[-96.07867512598223,41.759790836974524],[-96.08190954709669,41.755147185788445],[-96.08676243961064,41.75196389149367],[-96.09689401087681,41.74923252504009],[-96.10441698130316,41.744139404013985],[-96.10623237807025,41.734931755760435],[-96.10304374160933,41.72861508327393],[-96.09579521888128,41.725073462083834],[-96.08602933561762,41.72188723099944],[-96.07997136462083,41.71857375071304],[-96.07453931594301,41.71345108889524],[-96.07260190867409,41.70881106455852],[-96.07359350309325,41.704101653714496],[-96.07733235124874,41.700957656941405],[-96.08612126836083,41.69744379898189],[-96.1027991166811,41.699011643455655],[-96.11518921801326,41.69645185780261],[-96.11908064333626,41.69353651881079],[-96.12204199103142,41.687170215710665],[-96.12204108934029,41.68114555939526],[-96.11857750458809,41.67425138316324],[-96.11123708656632,41.66841675848749],[-96.10200649512707,41.66312801736902],[-96.09671107658737,41.65778652475882],[-96.09468139128347,41.651816504311995],[-96.09545988822939,41.644455986278004],[-96.09870978776283,41.63766821389405],[-96.11604457885637,41.62117838323297],[-96.11824166688243,41.61522011209958],[-96.1136039737438,41.60228778434162],[-96.10408114469755,41.5932336558173],[-96.08740325156712,41.5868117167199],[-96.08358859652643,41.58376217503699],[-96.08122347033579,41.57817006602883],[-96.08168119545917,41.57225907696083],[-96.0901798808759,41.5632232931495],[-96.0949719753877,41.554647003032194],[-96.0966812613998,41.54675700666614],[-96.09425514439715,41.539347631624906],[-96.09088286571432,41.53362969981027],[-96.08476362452421,41.5277152501581],[-96.07234287740867,41.52100546570419],[-96.06109669512439,41.51792837816575],[-96.05107152626623,41.51656489225536],[-96.0433046142657,41.51743723012416],[-96.03282085952337,41.522226234116715],[-96.03038032762647,41.52700963728727],[-96.02844213156331,41.53853408523567],[-96.02288814684832,41.544768204179576],[-96.01537948618554,41.54609117912412],[-96.00511047816188,41.543631397288685],[-95.9992208782259,41.53812960424503],[-95.99442935910903,41.52507904153925],[-95.99246053253933,41.515593143151044],[-95.99316256101197,41.511198023793874],[-96.00106738860237,41.50198605803093],[-96.01423693453032,41.493959480444474],[-96.01986683029446,41.48813801842966],[-96.01649471877202,41.48139108927731],[-96.00956776867778,41.47453003252201],[-96.00422523717076,41.47215712250173],[-95.9827863993662,41.46982448936254],[-95.97108394999587,41.46653416122761],[-95.9640650194567,41.46342817311211],[-95.9560689355396,41.46340890732751],[-95.94706594808571,41.46632382860067],[-95.94051931397325,41.46672562004091],[-95.93386770050168,41.46464406646068],[-95.9260242781291,41.46016985026209],[-95.9201948260001,41.452482842004024],[-95.91946211101,41.44794440703967],[-95.92126415358884,41.4425940897919],[-95.9323266651962,41.431748425623184],[-95.93330227611798,41.42835528729253],[-95.92948832964738,41.41320529761729],[-95.93154774697203,41.40478619122517],[-95.93656914133454,41.39827277592942],[-95.93775881074156,41.39335209886316],[-95.93510392066176,41.383522217819014],[-95.92942690407351,41.37512018958963],[-95.92921437018397,41.36841606053671],[-95.93515024870798,41.360654570052375],[-95.9429009169116,41.35670096669546],[-95.95420832377171,41.35252045204575],[-95.95684924809817,41.34929144941836],[-95.95584140886336,41.34313016303494],[-95.9437561851426,41.331966299117454],[-95.92321818720505,41.32134045164931],[-95.91642728947015,41.32007183436232],[-95.90164108165132,41.32140941564668],[-95.88709888770109,41.31876723851281],[-95.88087428042742,41.31531180013344],[-95.875121263777,41.30813366891478],[-95.87158097216737,41.294775781023475],[-95.87428174765313,41.28758439824261],[-95.88159134510136,41.28228600699928],[-95.90254240212471,41.27368978282289],[-95.9131476538272,41.279609032389345],[-95.90426668364566,41.29396431680041],[-95.90621949838173,41.300858789319186],[-95.92033473124235,41.30114979099766],[-95.92802537833768,41.29852263845325],[-95.93023797462972,41.29198184900429],[-95.92964247136209,41.2814777768204],[-95.91455151777274,41.27158495632681],[-95.92158581461811,41.26849754261935],[-95.92224308845054,41.26105071108918],[-95.91957194380112,41.25392253237135],[-95.91214032944528,41.23971864925856],[-95.9107826861466,41.23230466523459],[-95.91337654843794,41.22522299400531],[-95.92608660901502,41.20997680591522],[-95.92788752571856,41.20110465811902],[-95.92257665318579,41.190323786648705],[-95.91427537987543,41.18549965354985],[-95.90792800485916,41.18452538149824],[-95.89323375343797,41.18531901325949],[-95.87409810894425,41.187689827484604],[-95.8637678051793,41.18808242723387],[-95.85104159213085,41.185165020204074],[-95.84472433147542,41.181205329100855],[-95.84101571198366,41.17280372678516],[-95.84315292826324,41.16864395287467],[-95.85178979769272,41.165223948334905],[-95.86843647323886,41.16856604986967],[-95.87531983969026,41.165899487163394],[-95.88317731125105,41.157146701366415],[-95.88358963100309,41.152993351012114],[-95.88120842793246,41.14259633956266],[-95.87481476998127,41.132254500272445],[-95.86800858054092,41.124120172099865],[-95.86579586399257,41.11835699721834],[-95.86588839955367,41.10565533796925],[-95.86288167533692,41.09469699652369],[-95.86199626098002,41.087855932290154],[-95.86455948082,41.08131639322452],[-95.86990055264506,41.07563527736174],[-95.87926972378166,41.06841218979227],[-95.88254963438044,41.06267393247608],[-95.87955863486214,41.053417841739396],[-95.87128816802935,41.046004693122136],[-95.86098867327179,41.038857519432305],[-95.85882147893606,41.03147177994471],[-95.85949259766394,41.02609610722275],[-95.86809948489127,41.01355184310402],[-95.86968531164058,41.00752284817444],[-95.86645004178122,41.00064118781647],[-95.86248279998156,40.99676789091868],[-95.85219835039771,40.991609982179995],[-95.84032709554671,40.9875981029217],[-95.83197887958363,40.981534939017905],[-95.8279512350418,40.97295133938856],[-95.83031601172507,40.96250841975054],[-95.83658710537844,40.953140222227596],[-95.83850944433166,40.948292247433855],[-95.84000491262783,40.93391653850888],[-95.8373035309823,40.923976490746355],[-95.83170350412153,40.91627827165472],[-95.81436901019408,40.90359787311835],[-95.80977562026251,40.89590995861895],[-95.80936391221434,40.890506832846796],[-95.81246058069833,40.88423454943091],[-95.81796884536851,40.87863281673237],[-95.82591998437141,40.87468228265035],[-95.83892056214704,40.87203005790172],[-95.84416992361767,40.8689283857935],[-95.84796790710308,40.86287205301869],[-95.84813758173485,40.85828334754747],[-95.84513006529818,40.85165646395045],[-95.83814072235882,40.84095735981734],[-95.83672161265412,40.83591236392436],[-95.83717965343274,40.82933502503759],[-95.84496078751614,40.814894308841446],[-95.84555667204928,40.8114209328328],[-95.84329843078262,40.803685598452255],[-95.8343104389039,40.78760415668859],[-95.83537788282212,40.77835473724543],[-95.83856726013133,40.77451136378865],[-95.8462887384777,40.76855661313549],[-95.8555659739147,40.76443631491172],[-95.86626266910855,40.76142391026732],[-95.87175537049822,40.75878336890994],[-95.87900303226421,40.753288609967804],[-95.88490945047562,40.746331740359636],[-95.8890285723816,40.73485268508344],[-95.88739616700595,40.727994093477456],[-95.88254297945763,40.71790135335027],[-95.87941472303021,40.71530434128298],[-95.86157715817282,40.70920890460006],[-95.85205536063822,40.70126613523188],[-95.84877476203292,40.69618605597717],[-95.84610365085818,40.6821827213757],[-95.8399389936141,40.67523691277538],[-95.82429829060364,40.6675953170906],[-95.81393751082969,40.66557858797503],[-95.80504055083534,40.665227724606204],[-95.79254385090377,40.6611262381555],[-95.78045695732376,40.652023476860705],[-95.77461386653529,40.64521046509055],[-95.77035601521612,40.635503786490396],[-95.7696084310101,40.62435264722408],[-95.7669682826399,40.6196781108286],[-95.75717205418471,40.61300389715843],[-95.74963397819553,40.60676146325622],[-95.74844255687343,40.60059276741843],[-95.7503199395471,40.59628756357724],[-95.75532476517866,40.591178121968895],[-95.76624164978286,40.585260393995156],[-95.63258091780719,40.58371091719719],[-95.48824490571648,40.581660140399016],[-95.43126868236692,40.5811161043965],[-95.33555064545743,40.579927886479915],[-95.25913441329419,40.57930252318253],[-95.22149418005723,40.578716848260775],[-95.18331358435618,40.578390361232486],[-95.08789454591214,40.57688317552244],[-95.0499025761134,40.576662243239355],[-94.97270716644067,40.57554617703314],[-94.95354653882136,40.575709531602804],[-94.87833229977451,40.574794540407204],[-94.83963149929166,40.57380457904193],[-94.80159582954485,40.573583996978854],[-94.72670634839905,40.5723492705897],[-94.60470308321361,40.57101053514262],[-94.54751017595177,40.57073727807295],[-94.47131437739877,40.57090486426228],[-94.41533844841823,40.571343839282655],[-94.35854360320133,40.57135092551641],[-94.3201212804982,40.5716167847561],[-94.28227567903589,40.571539138950065],[-94.26299504386849,40.57187794501767],[-94.22500452069843,40.57195438707333],[-94.18687146106836,40.572452268331816],[-94.1301721181708,40.572886804409194],[-94.11065998684654,40.57280614595202],[-94.03439519466696,40.57367775534236],[-94.01568880748745,40.57415938553196],[-93.977261234839,40.57453667701964],[-93.88256688723101,40.57629193779085],[-93.8444494363473,40.57652362340004],[-93.80641341786529,40.57729169582378],[-93.76651203583415,40.57761824397097],[-93.72857066681003,40.5774230233586],[-93.69059068127311,40.5778370940199],[-93.59505405748946,40.57936120046309],[-93.55704812428236,40.5802810376561],[-93.51839268218872,40.580524642116345],[-93.48032085171442,40.57992377587378],[-93.42242800583537,40.57997889517923],[-93.36543450401437,40.58024539689177],[-93.32789705979087,40.58068241406589],[-93.27026302612994,40.58068756480829],[-93.23165954149074,40.580978998404625],[-93.19333716716116,40.58185197967755],[-93.1361385661987,40.582763406802954],[-93.0201740450406,40.58632139512188],[-92.9435589998595,40.58778869334261],[-92.87568862800131,40.58812478520937],[-92.82899277697643,40.58872398527969],[-92.80998250182378,40.58855064610177],[-92.733986690708,40.58917739025201],[-92.656931617511,40.590525643958436],[-92.58039145479435,40.59226576981002],[-92.56131673144813,40.59304218746165],[-92.52360541866426,40.593875682344944],[-92.4664493404036,40.59541022880425],[-92.44725531891821,40.59547319614039],[-92.37022654407434,40.5967277788147],[-92.33230788747356,40.5979202987224],[-92.27479627770214,40.59902413142731],[-92.25573852947045,40.59915521739193],[-92.14077608580996,40.60100694474962],[-92.06406641094904,40.60268179885629],[-92.0059270051273,40.60442177133897],[-91.94850601605691,40.605571667231004],[-91.8911175729498,40.607323928779245],[-91.85292112202497,40.60905040849983],[-91.72941108483995,40.61378605920499],[-91.72498827407371,40.606800924982885],[-91.71812170121366,40.59913994926199],[-91.71284196557761,40.59519868590063],[-91.70234389885081,40.59107262608445],[-91.68830422245861,40.58298684247099],[-91.68572631450051,40.57826419439853],[-91.69172245578235,40.56553121112978],[-91.69047150312456,40.559373300071165],[-91.68691535786084,40.55624308622129],[-91.67803490777597,40.55215118589284],[-91.65079751859096,40.54900801412865],[-91.62178921438313,40.54247719144047],[-91.6185395578015,40.53892513314582],[-91.61788365034356,40.531773602638516],[-91.62227855164467,40.514637889264556],[-91.61805095085069,40.50524566599146],[-91.61200861219847,40.50179514107934],[-91.59511636181632,40.49521314235429],[-91.58857011850921,40.489863407248606],[-91.58408411414801,40.481232363552415],[-91.58144328830807,40.47220937919027],[-91.57775109689554,40.467803855963076],[-91.57118912626348,40.46373216050081],[-91.56233940102418,40.46047849929919],[-91.54758311743616,40.45819516234345],[-91.52959242609094,40.45913901978127],[-91.52335262827624,40.454023702640896],[-91.52542706792636,40.44763599368653],[-91.53269057292937,40.44175559344613],[-91.53359082943409,40.43847883828815],[-91.5288754741341,40.43414885765596],[-91.51997981693599,40.43386423726922],[-91.51913959650473,40.43081755750793],[-91.5267388222225,40.42059961135812],[-91.52567021737018,40.41177547564813],[-91.51955249817448,40.40899474370841],[-91.51241029536382,40.408308562395625],[-91.50540688885134,40.40311937156603],[-91.49733424456772,40.39986173668072],[-91.49243507299138,40.400824962180906],[-91.48886556159688,40.40483229256888],[-91.48424173978823,40.40604200124959],[-91.48009173173158,40.40261826731223],[-91.48080819569017,40.39610537017089],[-91.48297552469005,40.394989715804975],[-91.49075772070424,40.39678519003495],[-91.49019271513048,40.38996721234317],[-91.48204321250009,40.38160851701969],[-91.47687029317952,40.38281073227652],[-91.47412431767803,40.386774411009156],[-91.46678518492585,40.38622690027741],[-91.46292420936126,40.38413967144044],[-91.46608259221976,40.37909167300542],[-91.46385572934656,40.37632345636985],[-91.45448541018587,40.37566709103072],[-91.44604738235212,40.3787250870534],[-91.44398731480776,40.38618363532568],[-91.43394674101677,40.384786873958724],[-91.42477486711242,40.38202274534711],[-91.41947583546282,40.37840100790407],[-91.41528445493513,40.38166786009843],[-91.39848315661966,40.38292282816907],[-91.38539029479783,40.38583073629539],[-91.37907427583575,40.3893278271255],[-91.37496930319841,40.39517088953373],[-91.37289447889493,40.402772045339695],[-91.37246612493792,40.41358539879333],[-91.37455698602903,40.42039831272322],[-91.38038748301393,40.43061483821028],[-91.38171485269945,40.44581292745105],[-91.38024978440204,40.45219751657381],[-91.37599264452352,40.460831064757144],[-91.36993395396958,40.47062817673096],[-91.36547905193163,40.4810782359348],[-91.36372409946358,40.489674565753646],[-91.36399850288744,40.49914639861047],[-91.3655475319164,40.50396979937556],[-91.3677380922234,40.50978414080839],[-91.38241649832415,40.52928644378853],[-91.38955738998024,40.533737206752846],[-91.39903392876391,40.535967818261135],[-91.4060677298936,40.54192947770519],[-91.40699839878918,40.55049122409336],[-91.4030630195638,40.558057955283935],[-91.39743215443171,40.56309673111707],[-91.381715010069,40.572705760647246],[-91.37396868482102,40.582073737692696],[-91.36160335790633,40.59994262730912],[-91.35621640241096,40.60497379414047],[-91.34722927927028,40.61054780689676],[-91.30746414904965,40.62617792517386],[-91.30143566677803,40.62770192323252],[-91.26473778946719,40.6338586663306],[-91.25191973730438,40.638124474464334],[-91.22855759934085,40.637903462777615],[-91.21329905180075,40.63825382082904],[-91.20107550260512,40.63616325308322],[-91.18612172678172,40.637496652932015],[-91.17159454903118,40.64511352766065],[-91.1448146203159,40.658216366467414],[-91.13717075059927,40.661498303830534],[-91.12523830382855,40.66856559873839],[-91.12136114695302,40.67203371153762],[-91.11594394378413,40.690078580618696],[-91.11203821066246,40.6972211644838],[-91.11071205926501,40.70580210468068],[-91.11199214916942,40.71255202510078],[-91.11594531148954,40.724651296855356],[-91.1143589953551,40.73302981867746],[-91.10996305683308,40.74745168838761],[-91.11156050107608,40.75247723046719],[-91.1067123330068,40.75244282099119],[-91.09977024466728,40.75993133449242],[-91.09357522345566,40.77213385031746],[-91.09156036124168,40.78025262061972],[-91.0912566400486,40.78785919781097],[-91.09554107608501,40.79930187369641],[-91.09745228497513,40.80808495290122],[-91.09586495553988,40.81477856491386],[-91.08991281218921,40.82491298067857],[-91.07753812823529,40.8336881283157],[-91.06990756837217,40.84019038824034],[-91.0619129350163,40.84435301640803],[-91.05486218338679,40.85040460604097],[-91.04648584536207,40.86591839465429],[-91.0424270005086,40.87085783766571],[-91.03462997203863,40.8762289092356],[-91.02274210195561,40.88275441742418],[-91.01236603893207,40.89775389059279],[-91.0051032589487,40.90429410441043],[-90.9972899781212,40.90881558081533],[-90.98483881109493,40.912291697422646],[-90.97991136192405,40.91538512467259],[-90.97066339481066,40.91833029625244],[-90.9630037841862,40.92450948736926],[-90.96069902252873,40.935665102923686],[-90.95343610169436,40.95080411314863],[-90.95186467777052,40.95672114932473],[-90.95462649963544,40.96823672683873],[-90.95824296152553,40.97690299028781],[-90.95781494838228,40.98290338660463],[-90.95014027018216,40.994341709993286],[-90.94524197079515,41.009422952653196],[-90.94580759111254,41.015999415544165],[-90.94231250439209,41.032339463408256],[-90.94255737756255,41.038919197787536],[-90.94539597968665,41.05429131832149],[-90.94539436001313,41.06086663033166],[-90.94884439618691,41.0686293488557],[-90.94847800060849,41.08596186002309],[-90.94643343694759,41.09343749976054],[-90.94769953967055,41.09890044866977],[-90.95867112166277,41.11252519745009],[-90.96575167854236,41.119432902352415],[-90.97148811892394,41.13082012496412],[-90.9816676200944,41.142843432255184],[-90.98848873512053,41.15454602318706],[-90.99483528985297,41.16068249753426],[-91.00066522713055,41.16385529168765],[-91.01198677748548,41.16629399633818],[-91.02402666757722,41.16367285349405],[-91.03333368133559,41.16400323320292],[-91.04276450967947,41.167235287962455],[-91.0526981871787,41.18234657249636],[-91.06872042667942,41.20338685714694],[-91.07552628791866,41.210238118956184],[-91.09133591838058,41.221219673602185],[-91.0978658403002,41.22816411639219],[-91.11088185838686,41.23747553181397],[-91.11393435319731,41.24206515423375],[-91.11422490053828,41.24998718857208],[-91.11191978817124,41.25421884796831],[-91.10320732460639,41.26387554115079],[-91.0973943529198,41.2747594205423],[-91.09186917582284,41.28789052743592],[-91.08518618775899,41.29591305567864],[-91.07717543673877,41.30229173331336],[-91.07426185012119,41.30746717455264],[-91.07323875717584,41.315187164396285],[-91.07203439490327,41.337738756666],[-91.0706000143209,41.34719015643271],[-91.06606808872263,41.367199812408344],[-91.06414494727508,41.37051810103704],[-91.05315894707357,41.38285257022451],[-91.05065686588331,41.38889894954646],[-91.05106854922208,41.39774176244737],[-91.04900886064551,41.40866834032872],[-91.043317379078,41.41656088666838],[-91.0334378725321,41.421398139471776],[-91.02750991204854,41.42363171208236],[-91.00939657483895,41.42549051913293],[-90.99692881886529,41.42913814535625],[-90.98801839992925,41.43289166872075],[-90.98069392549596,41.434195449986994],[-90.9747279650326,41.43373031736637],[-90.96274830740859,41.429645877419595],[-90.95476889700846,41.42547825094621],[-90.93403159792223,41.42164914232449],[-90.92542506633623,41.42256610251996],[-90.9175511938483,41.42650396285648],[-90.90114316741305,41.43055605848358],[-90.88636234402642,41.43774316439883],[-90.86301527974432,41.45088508047299],[-90.85303617670412,41.454274960339646],[-90.83657161117394,41.45554268623413],[-90.82024473462631,41.4542887744568],[-90.80556057668177,41.45444192052103],[-90.78774156719422,41.453308033267156],[-90.77898297476291,41.45117580229783],[-90.7434281233159,41.44952013278476],[-90.70677544583296,41.45363190349641],[-90.6935160976768,41.455951722702075],[-90.67885084127057,41.46061725100273],[-90.66142563859418,41.46071679313705],[-90.65307888562086,41.46358202625015],[-90.63759073930393,41.4757931404272],[-90.63130389470486,41.47964475029362],[-90.61300797916935,41.48791280540451],[-90.60788037892551,41.492192461053165],[-90.60351731951474,41.499333877700614],[-90.60338001593489,41.50372618934879],[-90.59816131302979,41.510336160456085],[-90.58531274573973,41.51468742694208],[-90.57080132160259,41.51645330423077],[-90.55604336010781,41.52432739106821],[-90.54476919398591,41.52622183856519],[-90.53654040560849,41.52613392758196],[-90.51586738264788,41.52011622873211],[-90.5001048613103,41.51803641123113],[-90.48730183171543,41.5182345886444],[-90.47196474946251,41.51957347920794],[-90.459407849111,41.52426812642404],[-90.44250115911586,41.539158907672814],[-90.43509721925075,41.54841450961256],[-90.4241278609375,41.55304157563542],[-90.41411898548648,41.56477712664681],[-90.39974447667173,41.57187391466029],[-90.39212950094763,41.574835518222706],[-90.3690575248995,41.57802014517747],[-90.35755127806802,41.582393810296075],[-90.34592400746475,41.586368238971225],[-90.3410564116212,41.59143424644881],[-90.33933241249056,41.597608585543526],[-90.34215643053584,41.62498956209901],[-90.34265933343431,41.638168132506785],[-90.34382023356294,41.64612935502827],[-90.33835786765361,41.66010644563814],[-90.33626642121995,41.667578030294095],[-90.33461925094942,41.67969799140457],[-90.33271368547163,41.6823510646952]],[[-96.34656341844125,42.654443558940095],[-96.34757123249408,42.652133502452884],[-96.35002631551518,42.65113396258093],[-96.34656341844125,42.654443558940095]],[[-95.05476349651249,42.311423190673324],[-95.05652289701955,42.31567969907775],[-95.05687259735586,42.31590047997078],[-95.05138400988908,42.315112906287986],[-95.05476349651249,42.311423190673324]],[[-95.06947967084919,42.25798475390549],[-95.07128704608691,42.2566282958162],[-95.07889233087496,42.25727350946344],[-95.06947967084919,42.25798475390549]],[[-95.04972854224913,42.225712087655616],[-95.05245697857303,42.22928307062365],[-95.05145756322712,42.228940715963724],[-95.04972854224913,42.225712087655616]],[[-93.06413401596312,42.419847626477726],[-93.06562370127588,42.42423268528961],[-93.06378466107887,42.422594632674006],[-93.06413401596312,42.419847626477726]],[[-90.34340275927424,41.687025269171144],[-90.34174940203175,41.686587799120375],[-90.33918806034993,41.68591002286086],[-90.34340275927424,41.687025269171144]],[[-96.46395985913259,42.73307579313139],[-96.46322751466812,42.73096497919142],[-96.47167873183865,42.737984345089785],[-96.46395985913259,42.73307579313139]],[[-96.6002561251486,42.74804527040101],[-96.60419787707113,42.749938148681224],[-96.60027971930717,42.75256006368626],[-96.6002561251486,42.74804527040101]],[[-90.27494943954633,41.800093644182795],[-90.27485830435835,41.800056776557156],[-90.27674616279661,41.80082046354305],[-90.27494943954633,41.800093644182795]]]},"properties":{"name":"Iowa"}}
]}